QIANFAN-81              
1 63167U 25046J   25221.24653373  .00000140  00000+0  19841-3 0  9995
2 63167  88.9863 332.8062 0016653 121.9500 238.3273 13.50962094 30549
QIANFAN-82              
1 63168U 25046K   25221.20525732  .00000147  00000+0  20873-3 0  9993
2 63168  88.9863 332.8539 0014712 128.7877 231.4591 13.50958977 30525
QIANFAN-83              
1 63169U 25046L   25221.14232822  .00000184  00000+0  22244-3 0  9997
2 63169  88.9863 332.8826 0016086 122.0375 238.2348 13.61933471 30519
QIANFAN-84              
1 63170U 25046M   25221.16002711  .00000164  00000+0  23578-3 0  9992
2 63170  88.9863 332.9916 0017717 126.1186 234.1608 13.50966050 30442
QIANFAN-85              
1 63171U 25046N   25221.23006207  .00000156  00000+0  22261-3 0  9994
2 63171  88.9863 332.8566 0015072 127.8217 232.4300 13.50960027 30525
QIANFAN-86              
1 63172U 25046P   25221.16422228  .00000155  00000+0  22147-3 0  9994
2 63172  88.9865 332.7226 0012903 131.2708 228.9557 13.50960393 30591
QIANFAN-87              
1 63173U 25046Q   25221.20938559 -.00000104  00000+0 -18026-3 0  9996
2 63173  88.9856 332.8345 0013583 127.0601 233.1795 13.50956883 30530
QIANFAN-88              
1 63174U 25046R   25221.22601380  .00000158  00000+0  22516-3 0  9994
2 63174  88.9864 332.7842 0013950 133.9540 226.2764 13.50964524 30560
